[{"OBJECT_NAME":"SHIYAN-4 (SY-4)","OBJECT_ID":"2011-068B","EPOCH":"2026-03-09T23:00:28.675872","MEAN_MOTION":14.31088676,"ECCENTRICITY":0.00240064,"INCLINATION":98.7036,"RA_OF_ASC_NODE":87.8563,"ARG_OF_PERICENTER":77.8488,"MEAN_ANOMALY":342.0096,"EPHEMERIS_TYPE":0,"CLASSIFICATION_TYPE":"U","NORAD_CAT_ID":37931,"ELEMENT_SET_NO":999,"REV_AT_EPOCH":74470,"BSTAR":0.00010117128,"MEAN_MOTION_DOT":2.23e-6,"MEAN_MOTION_DDOT":0},{"OBJECT_NAME":"CZ-6A DEB","OBJECT_ID":"2024-140RY","EPOCH":"2026-03-09T14:13:54.430176","MEAN_MOTION":14.2522355,"ECCENTRICITY":0.0038884,"INCLINATION":88.9499,"RA_OF_ASC_NODE":282.3029,"ARG_OF_PERICENTER":182.6958,"MEAN_ANOMALY":177.4032,"EPHEMERIS_TYPE":0,"CLASSIFICATION_TYPE":"U","NORAD_CAT_ID":61178,"ELEMENT_SET_NO":999,"REV_AT_EPOCH":8030,"BSTAR":0.0005794,"MEAN_MOTION_DOT":1.386e-5,"MEAN_MOTION_DDOT":0}]
